[{"OBJECT_NAME":"STARLINK-4440","OBJECT_ID":"2022-105Z","EPOCH":"2026-03-09T16:14:24.571392","MEAN_MOTION":15.01291028,"ECCENTRICITY":0.00030651,"INCLINATION":97.6027,"RA_OF_ASC_NODE":310.2063,"ARG_OF_PERICENTER":62.8472,"MEAN_ANOMALY":297.3064,"EPHEMERIS_TYPE":0,"CLASSIFICATION_TYPE":"U","NORAD_CAT_ID":53671,"ELEMENT_SET_NO":999,"REV_AT_EPOCH":19323,"BSTAR":0.00029745866,"MEAN_MOTION_DOT":3.768e-5,"MEAN_MOTION_DDOT":0},{"OBJECT_NAME":"LEMUR-2-MYNAMEISJEFF","OBJECT_ID":"2025-009DH","EPOCH":"2026-03-09T16:38:25.798560","MEAN_MOTION":15.02075007,"ECCENTRICITY":0.0004441,"INCLINATION":97.7341,"RA_OF_ASC_NODE":151.959,"ARG_OF_PERICENTER":147.2142,"MEAN_ANOMALY":212.9359,"EPHEMERIS_TYPE":0,"CLASSIFICATION_TYPE":"U","NORAD_CAT_ID":62712,"ELEMENT_SET_NO":999,"REV_AT_EPOCH":6268,"BSTAR":0.00083427599,"MEAN_MOTION_DOT":0.00010906,"MEAN_MOTION_DDOT":0}]
